STARLINK-1754_new
1 16590C 20070BL  21326.15520815  .00093611  00000-0  21430-2 0  3260
2 16590  53.0551 275.7753 0001190 112.1935 199.0964 15.42116890    10
STARLINK-1754_old
1 26590C 20070BL  21325.16761225  .00089671  00000-0  20552-2 0  3256
2 26590  53.0567 280.4396 0001260  98.0666 127.1950 15.42086234    19
